start=new Date('2021-11-27T00:00:00.000Z').valueOf();
sats=[{"SEMIMAJOR_AXIS":"6925.366","EPHEMERIS_TYPE":"0","ECCENTRICITY":"0.00030860","CENTER_NAME":"EARTH","MEAN_MOTION_DOT":"-0.00000130","OBJECT_TYPE":"PAYLOAD","TIME_SYSTEM":"UTC","APOAPSIS":"549.368","ELEMENT_SET_NO":"999","REF_FRAME":"TEME","ARG_OF_PERICENTER":"72.0355","PERIAPSIS":"545.094","PERIOD":"95.592","NORAD_CAT_ID":"47671","INCLINATION":"53.0541","OBJECT_NAME":"STARLINK-2064","TLE_LINE2":"2 47671  53.0541 233.7686 0003086  72.0355 288.0970 15.06394407 44505","OBJECT_ID":"2021-012BD","REV_AT_EPOCH":"4450","DECAY_DATE":null,"MEAN_MOTION":"15.06394407","TLE_LINE1":"1 47671U 21012BD  21330.45082839 -.00000130  00000-0  10246-4 0  9991","SITE":"AFETR","RA_OF_ASC_NODE":"233.7686","LAUNCH_DATE":"2021-02-16","FILE":"3224704","RCS_SIZE":"LARGE","MEAN_ELEMENT_THEORY":"SGP4","MEAN_ANOMALY":"288.0970","GP_ID":"190530381","MEAN_MOTION_DDOT":"0.0000000000000","BSTAR":"0.00001024600000","COUNTRY_CODE":"US","EPOCH":"2021-11-26T10:49:11.572896","CLASSIFICATION_TYPE":"U"},{"SEMIMAJOR_AXIS":"6925.350","ECCENTRICITY":"0.00033970","EPHEMERIS_TYPE":"0","CENTER_NAME":"EARTH","OBJECT_TYPE":"PAYLOAD","MEAN_MOTION_DOT":"-0.00000056","ELEMENT_SET_NO":"999","APOAPSIS":"549.567","TIME_SYSTEM":"UTC","ARG_OF_PERICENTER":"63.2785","REF_FRAME":"TEME","PERIOD":"95.592","PERIAPSIS":"544.862","INCLINATION":"53.0516","NORAD_CAT_ID":"47672","TLE_LINE2":"2 47672  53.0516 221.4636 0003397  63.2785 296.8552 15.06399578 44698","OBJECT_NAME":"STARLINK-2065","DECAY_DATE":null,"REV_AT_EPOCH":"4469","OBJECT_ID":"2021-012BE","MEAN_MOTION":"15.06399578","TLE_LINE1":"1 47672U 21012BE  21330.96040635 -.00000056  00000-0  15169-4 0  9992","SITE":"AFETR","LAUNCH_DATE":"2021-02-16","FILE":"3224952","RA_OF_ASC_NODE":"221.4636","MEAN_ELEMENT_THEORY":"SGP4","RCS_SIZE":"LARGE","GP_ID":"190559435","MEAN_ANOMALY":"296.8552","MEAN_MOTION_DDOT":"0.0000000000000","COUNTRY_CODE":"US","BSTAR":"0.00001516900000","CLASSIFICATION_TYPE":"U","EPOCH":"2021-11-26T23:02:59.108640"},{"MEAN_ANOMALY":"286.3275","GP_ID":"190559682","CLASSIFICATION_TYPE":"U","EPOCH":"2021-11-26T20:54:16.003584","COUNTRY_CODE":"US","BSTAR":"0.00004007100000","MEAN_MOTION_DDOT":"0.0000000000000","MEAN_MOTION":"15.06403531","DECAY_DATE":null,"REV_AT_EPOCH":"4455","OBJECT_ID":"2021-012BF","TLE_LINE2":"2 47673  53.0553 231.8674 0002095  73.7944 286.3275 15.06403531 44550","OBJECT_NAME":"STARLINK-2066","MEAN_ELEMENT_THEORY":"SGP4","RCS_SIZE":"LARGE","FILE":"3224952","LAUNCH_DATE":"2021-02-16","RA_OF_ASC_NODE":"231.8674","SITE":"AFETR","TLE_LINE1":"1 47673U 21012BF  21330.87101856  .00000315  00000-0  40071-4 0  9993","ARG_OF_PERICENTER":"73.7944","REF_FRAME":"TEME","ELEMENT_SET_NO":"999","APOAPSIS":"548.654","TIME_SYSTEM":"UTC","INCLINATION":"53.0553","NORAD_CAT_ID":"47673","PERIOD":"95.592","PERIAPSIS":"545.752","ECCENTRICITY":"0.00020950","EPHEMERIS_TYPE":"0","SEMIMAJOR_AXIS":"6925.338","OBJECT_TYPE":"PAYLOAD","MEAN_MOTION_DOT":"0.00000315","CENTER_NAME":"EARTH"},{"TLE_LINE2":"2 47674  53.0546 235.0720 0002060  66.6530 293.4676 15.06402440 44456","OBJECT_NAME":"STARLINK-2067","MEAN_MOTION":"15.06402440","DECAY_DATE":null,"OBJECT_ID":"2021-012BG","REV_AT_EPOCH":"4445","SITE":"AFETR","TLE_LINE1":"1 47674U 21012BG  21330.15594530  .00001987  00000-0  15225-3 0  9998","MEAN_ELEMENT_THEORY":"SGP4","RCS_SIZE":"LARGE","FILE":"3224704","LAUNCH_DATE":"2021-02-16","RA_OF_ASC_NODE":"235.0720","MEAN_ANOMALY":"293.4676","GP_ID":"190529632","COUNTRY_CODE":"US","BSTAR":"0.00015225000000","MEAN_MOTION_DDOT":"0.0000000000000","CLASSIFICATION_TYPE":"U","EPOCH":"2021-11-26T03:44:33.673920","SEMIMAJOR_AXIS":"6925.341","ECCENTRICITY":"0.00020600","EPHEMERIS_TYPE":"0","CENTER_NAME":"EARTH","OBJECT_TYPE":"PAYLOAD","MEAN_MOTION_DOT":"0.00001987","ARG_OF_PERICENTER":"66.6530","REF_FRAME":"TEME","ELEMENT_SET_NO":"999","APOAPSIS":"548.633","TIME_SYSTEM":"UTC","PERIOD":"95.592","PERIAPSIS":"545.779","INCLINATION":"53.0546","NORAD_CAT_ID":"47674"},{"CENTER_NAME":"EARTH","MEAN_MOTION_DOT":"0.00001024","OBJECT_TYPE":"PAYLOAD","SEMIMAJOR_AXIS":"6925.369","EPHEMERIS_TYPE":"0","ECCENTRICITY":"0.00022290","PERIOD":"95.593","PERIAPSIS":"545.690","NORAD_CAT_ID":"47675","INCLINATION":"53.0556","REF_FRAME":"TEME","ARG_OF_PERICENTER":"63.6221","TIME_SYSTEM":"UTC","APOAPSIS":"548.778","ELEMENT_SET_NO":"999","TLE_LINE1":"1 47675U 21012BH  21330.74569488  .00001024  00000-0  87676-4 0  9990","SITE":"AFETR","RCS_SIZE":"LARGE","MEAN_ELEMENT_THEORY":"SGP4","RA_OF_ASC_NODE":"232.4315","LAUNCH_DATE":"2021-02-16","FILE":"3224952","OBJECT_NAME":"STARLINK-2078","TLE_LINE2":"2 47675  53.0556 232.4315 0002229  63.6221 296.4997 15.06393339 44545","MEAN_MOTION":"15.06393339","REV_AT_EPOCH":"4454","OBJECT_ID":"2021-012BH","DECAY_DATE":null,"BSTAR":"0.00008767600000","COUNTRY_CODE":"US","MEAN_MOTION_DDOT":"0.0000000000000","CLASSIFICATION_TYPE":"U","EPOCH":"2021-11-26T17:53:48.037632","MEAN_ANOMALY":"296.4997","GP_ID":"190558686"},{"COUNTRY_CODE":"US","BSTAR":"0.00024534000000","MEAN_MOTION_DDOT":"0.0000000000000","CLASSIFICATION_TYPE":"U","EPOCH":"2021-11-26T22:00:00.999936","GP_ID":"190558936","MEAN_ANOMALY":"35.2684","SITE":"AFETR","TLE_LINE1":"1 47676U 21012BJ  21330.91667824  .00033984  00000-0  24534-3 0  9996","MEAN_ELEMENT_THEORY":"SGP4","RCS_SIZE":"LARGE","LAUNCH_DATE":"2021-02-16","FILE":"3224952","RA_OF_ASC_NODE":"131.1742","TLE_LINE2":"2 47676  53.0539 131.1742 0008592 312.7218  35.2684 15.73175641  3690","OBJECT_NAME":"STARLINK-2083","MEAN_MOTION":"15.73175641","DECAY_DATE":null,"REV_AT_EPOCH":"369","OBJECT_ID":"2021-012BJ","PERIAPSIS":"344.049","PERIOD":"91.535","INCLINATION":"53.0539","NORAD_CAT_ID":"47676","ARG_OF_PERICENTER":"312.7218","REF_FRAME":"TEME","ELEMENT_SET_NO":"999","TIME_SYSTEM":"UTC","APOAPSIS":"355.610","CENTER_NAME":"EARTH","OBJECT_TYPE":"PAYLOAD","MEAN_MOTION_DOT":"0.00033984","SEMIMAJOR_AXIS":"6727.965","ECCENTRICITY":"0.00085920","EPHEMERIS_TYPE":"0"},{"CENTER_NAME":"EARTH","MEAN_MOTION_DOT":"0.00001656","OBJECT_TYPE":"PAYLOAD","SEMIMAJOR_AXIS":"6925.346","EPHEMERIS_TYPE":"0","ECCENTRICITY":"0.00019280","PERIAPSIS":"545.876","PERIOD":"95.592","NORAD_CAT_ID":"47677","INCLINATION":"53.0559","REF_FRAME":"TEME","ARG_OF_PERICENTER":"69.7920","TIME_SYSTEM":"UTC","APOAPSIS":"548.546","ELEMENT_SET_NO":"999","SITE":"AFETR","TLE_LINE1":"1 47677U 21012BK  21330.20201919  .00001656  00000-0  13005-3 0  9990","RCS_SIZE":"LARGE","MEAN_ELEMENT_THEORY":"SGP4","RA_OF_ASC_NODE":"254.8776","LAUNCH_DATE":"2021-02-16","FILE":"3224704","OBJECT_NAME":"STARLINK-2090","TLE_LINE2":"2 47677  53.0559 254.8776 0001928  69.7920 290.3277 15.06400920 44175","MEAN_MOTION":"15.06400920","REV_AT_EPOCH":"4417","OBJECT_ID":"2021-012BK","DECAY_DATE":null,"BSTAR":"0.00013005000000","COUNTRY_CODE":"US","MEAN_MOTION_DDOT":"0.0000000000000","CLASSIFICATION_TYPE":"U","EPOCH":"2021-11-26T04:50:54.458016","GP_ID":"190530871","MEAN_ANOMALY":"290.3277"},{"PERIOD":"95.593","PERIAPSIS":"546.085","NORAD_CAT_ID":"47679","INCLINATION":"53.0549","REF_FRAME":"TEME","ARG_OF_PERICENTER":"71.1959","APOAPSIS":"548.417","TIME_SYSTEM":"UTC","ELEMENT_SET_NO":"999","CENTER_NAME":"EARTH","MEAN_MOTION_DOT":"-0.00000470","OBJECT_TYPE":"PAYLOAD","SEMIMAJOR_AXIS":"6925.386","EPHEMERIS_TYPE":"0","ECCENTRICITY":"0.00016840","BSTAR":"-0.00001263100000","COUNTRY_CODE":"US","MEAN_MOTION_DDOT":"0.0000000000000","EPOCH":"2021-11-26T11:54:10.743552","CLASSIFICATION_TYPE":"U","GP_ID":"190533510","MEAN_ANOMALY":"288.9213","TLE_LINE1":"1 47679U 21012BM  21330.49595768 -.00000470  00000-0 -12631-4 0  9991","SITE":"AFETR","RCS_SIZE":"LARGE","MEAN_ELEMENT_THEORY":"SGP4","RA_OF_ASC_NODE":"253.5665","FILE":"3224773","LAUNCH_DATE":"2021-02-16","OBJECT_NAME":"STARLINK-2095","TLE_LINE2":"2 47679  53.0549 253.5665 0001684  71.1959 288.9213 15.06387758 43712","MEAN_MOTION":"15.06387758","OBJECT_ID":"2021-012BM","REV_AT_EPOCH":"4371","DECAY_DATE":null},{"RCS_SIZE":"LARGE","MEAN_ELEMENT_THEORY":"SGP4","RA_OF_ASC_NODE":"16.9821","FILE":"3224952","LAUNCH_DATE":"2021-03-04","SITE":"AFETR","TLE_LINE1":"1 47722U 21017A   21330.84749591 -.00000116  00000-0  11058-4 0  9997","MEAN_MOTION":"15.06393825","OBJECT_ID":"2021-017A","REV_AT_EPOCH":"4228","DECAY_DATE":null,"OBJECT_NAME":"STARLINK-2068","TLE_LINE2":"2 47722  53.0576  16.9821 0000393 295.8140  64.2808 15.06393825 42287","CLASSIFICATION_TYPE":"U","EPOCH":"2021-11-26T20:20:23.646624","BSTAR":"0.00001105800000","COUNTRY_CODE":"US","MEAN_MOTION_DDOT":"0.0000000000000","GP_ID":"190558691","MEAN_ANOMALY":"64.2808","MEAN_MOTION_DOT":"-0.00000116","OBJECT_TYPE":"PAYLOAD","CENTER_NAME":"EARTH","EPHEMERIS_TYPE":"0","ECCENTRICITY":"0.00003930","SEMIMAJOR_AXIS":"6925.367","NORAD_CAT_ID":"47722","INCLINATION":"53.0576","PERIAPSIS":"546.960","PERIOD":"95.593","REF_FRAME":"TEME","ARG_OF_PERICENTER":"295.8140","TIME_SYSTEM":"UTC","APOAPSIS":"547.505","ELEMENT_SET_NO":"999"},{"MEAN_ANOMALY":"306.3467","GP_ID":"190558941","CLASSIFICATION_TYPE":"U","EPOCH":"2021-11-26T22:40:26.045760","COUNTRY_CODE":"US","BSTAR":"-0.00003981500000","MEAN_MOTION_DDOT":"0.0000000000000","MEAN_MOTION":"15.06395328","DECAY_DATE":null,"OBJECT_ID":"2021-017B","REV_AT_EPOCH":"4317","TLE_LINE2":"2 47723  53.0531 311.5267 0002142  53.7720 306.3467 15.06395328 43176","OBJECT_NAME":"STARLINK-2107","MEAN_ELEMENT_THEORY":"SGP4","RCS_SIZE":"LARGE","FILE":"3224952","LAUNCH_DATE":"2021-03-04","RA_OF_ASC_NODE":"311.5267","SITE":"AFETR","TLE_LINE1":"1 47723U 21017B   21330.94474590 -.00000875  00000-0 -39815-4 0  9997","ARG_OF_PERICENTER":"53.7720","REF_FRAME":"TEME","ELEMENT_SET_NO":"999","TIME_SYSTEM":"UTC","APOAPSIS":"548.711","INCLINATION":"53.0531","NORAD_CAT_ID":"47723","PERIOD":"95.592","PERIAPSIS":"545.744","ECCENTRICITY":"0.00021420","EPHEMERIS_TYPE":"0","SEMIMAJOR_AXIS":"6925.363","OBJECT_TYPE":"PAYLOAD","MEAN_MOTION_DOT":"-0.00000875","CENTER_NAME":"EARTH"}];
